OBJECT_NAME,OBJECT_ID,EPOCH,MEAN_MOTION,ECCENTRICITY,INCLINATION,RA_OF_ASC_NODE,ARG_OF_PERICENTER,MEAN_ANOMALY,EPHEMERIS_TYPE,CLASSIFICATION_TYPE,NORAD_CAT_ID,ELEMENT_SET_NO,REV_AT_EPOCH,BSTAR,MEAN_MOTION_DOT,MEAN_MOTION_DDOT
APRIZESAT 2,2004-025A,2026-07-05T22:22:25.229280,14.38044622,.01052891,98.1032,351.8530,192.8084,167.0427,0,U,28366,999,15433,.95495731E-4,.266E-5,0
SAUDICOMSAT 1,2004-025D,2026-07-06T06:21:40.876416,14.55489220,.00314035,98.5772,197.9114,327.0444,32.8794,0,U,28369,999,16690,.98386411E-4,.381E-5,0
SAUDICOMSAT 2,2004-025E,2026-07-06T00:47:21.629472,14.49991369,.00549925,98.6639,199.8119,201.5272,158.3609,0,U,28370,999,16283,.76567847E-4,.252E-5,0
APRIZESAT 1,2004-025G,2026-07-05T23:20:09.715488,14.51788427,.0045784,98.6304,198.2090,98.0031,262.6362,0,U,28372,999,16463,.87820332E-4,.309E-5,0
NANOSAT-1,2004-049B,2026-07-05T23:05:14.565696,14.80198735,.00031097,98.2300,324.0845,217.3011,142.7984,0,U,28493,999,15822,.16494035E-3,.1198E-4,0
SAUDICOMSAT 7,2007-012C,2026-07-05T21:08:41.530272,14.66130004,.0056569,98.3789,161.3963,136.8992,223.6661,0,U,31119,999,2517,.12318686E-3,.64E-5,0
SAUDICOMSAT 6,2007-012E,2026-07-05T20:03:03.673152,14.62578957,.00703651,98.4108,154.7002,268.7920,90.5219,0,U,31121,999,2291,.10968698E-3,.522E-5,0
SAUDICOMSAT 5,2007-012H,2026-07-05T21:30:54.625248,14.68183677,.00486471,98.3501,162.1551,67.4123,293.2218,0,U,31124,999,2634,.15144234E-3,.833E-5,0
SAUDICOMSAT 3,2007-012J,2026-07-05T21:25:15.989088,14.70739669,.00389698,98.3154,162.6981,354.9556,5.1251,0,U,31125,999,2757,.16745495E-3,.979E-5,0
SAUDICOMSAT 4,2007-012L,2026-07-05T21:00:02.051136,14.64529858,.00628998,98.3994,159.8277,198.9127,160.9738,0,U,31127,999,2402,.10367941E-3,.512E-5,0
APRIZESAT 4,2009-041D,2026-07-06T04:55:30.550944,14.83905551,.00419158,98.1406,262.9045,259.5466,100.1023,0,U,35684,999,91418,.97265558E-4,.761E-5,0
APRIZESAT 3,2009-041F,2026-07-05T22:58:32.192256,14.96291448,.0061563,98.2082,341.0828,6.2116,353.9853,0,U,35686,999,91918,.129522E-3,.1451E-4,0
S-NET D,2018-014G,2026-07-06T06:19:56.509536,15.16863856,.00068022,97.5340,91.9355,323.3476,36.7291,0,U,43186,999,46165,.27387318E-3,.5326E-4,0
S-NET B,2018-014H,2026-07-06T06:36:58.364928,15.16833783,.00073211,97.5345,91.9344,316.9087,43.1572,0,U,43187,999,46165,.2965898E-3,.5769E-4,0
S-NET A,2018-014J,2026-07-06T06:18:10.407744,15.16872249,.00072122,97.5356,92.1340,318.1163,41.9518,0,U,43188,999,46165,.27074397E-3,.5266E-4,0
S-NET C,2018-014K,2026-07-06T06:42:41.822208,15.16825091,.00084341,97.5373,92.2284,307.7137,52.3331,0,U,43189,999,46020,.29705173E-3,.5778E-4,0
SALSAT,2020-068K,2026-07-05T23:33:58.355424,15.30081867,.00083275,97.8857,191.1942,228.1198,131.9331,0,U,46495,999,31823,.29469816E-3,.8505E-4,0
OOV-CUBE (TUBSAT-30),2024-128F,2026-07-06T03:38:30.625440,15.02848391,.00422378,61.9939,159.4402,137.9617,222.4729,0,U,60240,999,10896,.18541753E-3,.233E-4,0
LPNTSAT-001 (IOD-1),2026-065A,2026-07-06T02:52:28.498656,15.18638443,.00148818,97.3993,67.2275,301.7176,58.2608,0,U,68408,999,1513,.14431254E-3,.2928E-4,0
